{
  "type": "FeatureCollection",
  "features": [
    {
      "type": "Feature",
      "properties": {
        "norad_id": 66990,
        "name": "TJS-22",
        "group": "last-30-days",
        "lat": 10.340764892212349,
        "lon": -30.513761727464434,
        "alt_km": 27765.2647861877,
        "timestamp": "2025-12-16T10:53:44.208192+00:00",
        "meta_object_name": "TJS-22",
        "meta_object_id": "2025-290A",
        "meta_epoch": "2025-12-10T07:11:32.845344",
        "meta_mean_motion": 2.15443148,
        "meta_eccentricity": 0.6664534,
        "meta_inclination": 20.1261,
        "meta_ra_of_asc_node": 301.1464,
        "meta_arg_of_pericenter": 180.6877,
        "meta_mean_anomaly": 177.6237,
        "meta_ephemeris_type": 0,
        "meta_classification_type": "U",
        "meta_norad_cat_id": 66990,
        "meta_element_set_no": 999,
        "meta_rev_at_epoch": 3,
        "meta_bstar": 0.079788243,
        "meta_mean_motion_dot": -3.8e-07,
        "meta_mean_motion_ddot": 0,
        "tle_line1": "1 66990U 25290A   25344.29968571 -.00000038  00000+0  79788-1 0  9994",
        "tle_line2": "2 66990  20.1261 301.1464 6664534 180.6877 177.6237  2.15443148    32"
      },
      "geometry": {
        "type": "Point",
        "coordinates": [
          -30.513761727464434,
          10.340764892212349
        ]
      }
    },
    {
      "type": "Feature",
      "properties": {
        "norad_id": 66991,
        "name": "CZ-3B R/B",
        "group": "last-30-days",
        "lat": -12.342263215698882,
        "lon": -83.60449283382538,
        "alt_km": 23968.338318194077,
        "timestamp": "2025-12-16T10:53:44.208207+00:00",
        "meta_object_name": "CZ-3B R/B",
        "meta_object_id": "2025-290B",
        "meta_epoch": "2025-12-15T17:23:33.043200",
        "meta_mean_motion": 2.38388611,
        "meta_eccentricity": 0.7240884,
        "meta_inclination": 28.4636,
        "meta_ra_of_asc_node": 300.4666,
        "meta_arg_of_pericenter": 182.7002,
        "meta_mean_anomaly": 168.625,
        "meta_ephemeris_type": 0,
        "meta_classification_type": "U",
        "meta_norad_cat_id": 66991,
        "meta_element_set_no": 999,
        "meta_rev_at_epoch": 16,
        "meta_bstar": 0.00075879,
        "meta_mean_motion_dot": 0.00057911,
        "meta_mean_motion_ddot": -2.0514e-07,
        "tle_line1": "1 66991U 25290B   25349.72468800  .00057911 -20514-6  75879-3 0  9998",
        "tle_line2": "2 66991  28.4636 300.4666 7240884 182.7002 168.6250  2.38388611   165"
      },
      "geometry": {
        "type": "Point",
        "coordinates": [
          -83.60449283382538,
          -12.342263215698882
        ]
      }
    },
    {
      "type": "Feature",
      "properties": {
        "norad_id": 66993,
        "name": "2025-292A",
        "group": "last-30-days",
        "lat": -58.18684609056678,
        "lon": 75.48882442910579,
        "alt_km": 552.9918183926611,
        "timestamp": "2025-12-16T10:53:44.208218+00:00",
        "meta_object_name": "2025-292A",
        "meta_object_id": "2025-292A",
        "meta_epoch": "2025-12-15T22:23:16.086912",
        "meta_mean_motion": 15.04517676,
        "meta_eccentricity": 0.00137847,
        "meta_inclination": 97.6536,
        "meta_ra_of_asc_node": 62.4532,
        "meta_arg_of_pericenter": 260.8864,
        "meta_mean_anomaly": 99.0803,
        "meta_ephemeris_type": 0,
        "meta_classification_type": "U",
        "meta_norad_cat_id": 66993,
        "meta_element_set_no": 999,
        "meta_rev_at_epoch": 87,
        "meta_bstar": 0.0002329625,
        "meta_mean_motion_dot": 3.207e-05,
        "meta_mean_motion_ddot": 0,
        "tle_line1": "1 66993U 25292A   25349.93282508  .00003207  00000+0  23296-3 0  9999",
        "tle_line2": "2 66993  97.6536  62.4532 0013784 260.8864  99.0803 15.04517676   876"
      },
      "geometry": {
        "type": "Point",
        "coordinates": [
          75.48882442910579,
          -58.18684609056678
        ]
      }
    },
    {
      "type": "Feature",
      "properties": {
        "norad_id": 66994,
        "name": "2025-292B",
        "group": "last-30-days",
        "lat": -57.158382030218824,
        "lon": 74.99620184959643,
        "alt_km": 552.9766992615969,
        "timestamp": "2025-12-16T10:53:44.208228+00:00",
        "meta_object_name": "2025-292B",
        "meta_object_id": "2025-292B",
        "meta_epoch": "2025-12-15T22:23:00.696480",
        "meta_mean_motion": 15.04569743,
        "meta_eccentricity": 0.00135668,
        "meta_inclination": 97.6545,
        "meta_ra_of_asc_node": 62.4539,
        "meta_arg_of_pericenter": 261.4592,
        "meta_mean_anomaly": 98.5097,
        "meta_ephemeris_type": 0,
        "meta_classification_type": "U",
        "meta_norad_cat_id": 66994,
        "meta_element_set_no": 999,
        "meta_rev_at_epoch": 87,
        "meta_bstar": 0.00026902032,
        "meta_mean_motion_dot": 3.719e-05,
        "meta_mean_motion_ddot": 0,
        "tle_line1": "1 66994U 25292B   25349.93264695  .00003719  00000+0  26902-3 0  9992",
        "tle_line2": "2 66994  97.6545  62.4539 0013566 261.4592  98.5097 15.04569743   878"
      },
      "geometry": {
        "type": "Point",
        "coordinates": [
          74.99620184959643,
          -57.158382030218824
        ]
      }
    },
    {
      "type": "Feature",
      "properties": {
        "norad_id": 66995,
        "name": "2025-292C",
        "group": "last-30-days",
        "lat": -57.04609465451042,
        "lon": 74.94188643574404,
        "alt_km": 552.8156909996897,
        "timestamp": "2025-12-16T10:53:44.208238+00:00",
        "meta_object_name": "2025-292C",
        "meta_object_id": "2025-292C",
        "meta_epoch": "2025-12-15T22:22:59.067840",
        "meta_mean_motion": 15.04577691,
        "meta_eccentricity": 0.0013828,
        "meta_inclination": 97.6536,
        "meta_ra_of_asc_node": 62.4534,
        "meta_arg_of_pericenter": 261.5639,
        "meta_mean_anomaly": 98.4019,
        "meta_ephemeris_type": 0,
        "meta_classification_type": "U",
        "meta_norad_cat_id": 66995,
        "meta_element_set_no": 999,
        "meta_rev_at_epoch": 87,
        "meta_bstar": 0.00029858326,
        "meta_mean_motion_dot": 4.136e-05,
        "meta_mean_motion_ddot": 0,
        "tle_line1": "1 66995U 25292C   25349.93262810  .00004136  00000+0  29858-3 0  9997",
        "tle_line2": "2 66995  97.6536  62.4534 0013828 261.5639  98.4019 15.04577691   872"
      },
      "geometry": {
        "type": "Point",
        "coordinates": [
          74.94188643574404,
          -57.04609465451042
        ]
      }
    },
    {
      "type": "Feature",
      "properties": {
        "norad_id": 66996,
        "name": "2025-292D",
        "group": "last-30-days",
        "lat": -55.94287268702717,
        "lon": 74.44380820289997,
        "alt_km": 552.9187384874203,
        "timestamp": "2025-12-16T10:53:44.208248+00:00",
        "meta_object_name": "2025-292D",
        "meta_object_id": "2025-292D",
        "meta_epoch": "2025-12-15T22:22:42.077280",
        "meta_mean_motion": 15.04618589,
        "meta_eccentricity": 0.00130215,
        "meta_inclination": 97.653,
        "meta_ra_of_asc_node": 62.4534,
        "meta_arg_of_pericenter": 264.2873,
        "meta_mean_anomaly": 95.6869,
        "meta_ephemeris_type": 0,
        "meta_classification_type": "U",
        "meta_norad_cat_id": 66996,
        "meta_element_set_no": 999,
        "meta_rev_at_epoch": 87,
        "meta_bstar": 0.00021923207,
        "meta_mean_motion_dot": 3.022e-05,
        "meta_mean_motion_ddot": 0,
        "tle_line1": "1 66996U 25292D   25349.93243145  .00003022  00000+0  21923-3 0  9996",
        "tle_line2": "2 66996  97.6530  62.4534 0013021 264.2873  95.6869 15.04618589   876"
      },
      "geometry": {
        "type": "Point",
        "coordinates": [
          74.44380820289997,
          -55.94287268702717
        ]
      }
    },
    {
      "type": "Feature",
      "properties": {
        "norad_id": 66997,
        "name": "2025-292E",
        "group": "last-30-days",
        "lat": -54.20381928589133,
        "lon": 73.72152382984362,
        "alt_km": 552.5389646649373,
        "timestamp": "2025-12-16T10:53:44.208258+00:00",
        "meta_object_name": "2025-292E",
        "meta_object_id": "2025-292E",
        "meta_epoch": "2025-12-15T22:22:15.955968",
        "meta_mean_motion": 15.04700747,
        "meta_eccentricity": 0.00133712,
        "meta_inclination": 97.6551,
        "meta_ra_of_asc_node": 62.455,
        "meta_arg_of_pericenter": 265.1747,
        "meta_mean_anomaly": 94.7952,
        "meta_ephemeris_type": 0,
        "meta_classification_type": "U",
        "meta_norad_cat_id": 66997,
        "meta_element_set_no": 999,
        "meta_rev_at_epoch": 86,
        "meta_bstar": 0.0002313467,
        "meta_mean_motion_dot": 3.2e-05,
        "meta_mean_motion_ddot": 0,
        "tle_line1": "1 66997U 25292E   25349.93212912  .00003200  00000+0  23135-3 0  9990",
        "tle_line2": "2 66997  97.6551  62.4550 0013371 265.1747  94.7952 15.04700747   866"
      },
      "geometry": {
        "type": "Point",
        "coordinates": [
          73.72152382984362,
          -54.20381928589133
        ]
      }
    }
  ]
}